STARLINK-6370           
1 57373U 23099AX  26068.50461151 -.00000350  00000+0 -10825-4 0  9992
2 57373  43.0023 237.3724 0000967 243.7465 116.3278 15.02544988146230
PICO-02A021             
1 60538U 24149BY  26068.15390193  .00008488  00000+0  64833-3 0  9999
2 60538  97.6823 147.9080 0004195   9.5557 350.5747 15.02201963 84718
